C/2014 F3 (Sheppard-Trujillo),e,6.5258,326.9901,2.1306,16.23241,0.0150706,0.64860973,353.5635,03/05.0/2020,2000,g  6.0,4.0
# From MPC105541
C/2014 HU195 (Valdes-TOTAS),e,5.8173,115.7404,145.3723,22.12130,0.0094730,0.76791849,16.5875,03/05.0/2020,2000,g 10.5,4.0
# From MPC 98560
P/2014 L2 (NEOWISE),e,5.1946,149.3552,182.6265,6.304115,0.0622684,0.64776731,128.1182,03/05.0/2020,2000,g 12.0,4.0
# From MPC 90769
P/2014 L3 (Hill),e,6.2771,115.4724,178.6036,8.163200,0.0422584,0.77394128,87.6481,03/05.0/2020,2000,g 16.0,4.0
# From MPC103844
C/2014 M1 (PANSTARRS),e,160.2189,234.7759,337.1282,9144,0.0000011,0.99938795,0.0000,08/27.5909/2015,2000,g  9.0,4.0
# From MPC 91614
P/2014 M4 (PANSTARRS),e,3.3345,263.2848,147.9778,5.877521,0.0691692,0.59346968,131.2432,03/05.0/2020,2000,g 15.0,4.0
# From MPC103844
P/2014 MG4 (Spacewatch-PANSTARRS),e,9.3703,311.7387,299.0516,5.011703,0.0878468,0.26001872,215.4339,03/05.0/2020,2000,g  9.5,4.0
# From MPC103844
C/2014 N3 (NEOWISE),e,61.6597,19.8483,353.4023,1595,0.0000155,0.99757299,0.0000,03/12.6673/2015,2000,g  7.0,4.0
# From MPC 98560
P/2014 O3 (PANSTARRS),e,7.8090,87.6397,204.4917,7.558367,0.0474310,0.38640379,101.7829,03/05.0/2020,2000,g 10.5,4.0
# From MPEC 2020-AA5
C/2014 OE4 (PANSTARRS),h,12/12.4041/2016,81.3370,240.3994,65.8557,1.002493,6.247557,2000,11.0,2.0
# From MPC100578
C/2014 Q1 (PANSTARRS),e,43.0625,9.0641,119.9420,969.4298,0.0000327,0.99967151,0.0000,07/05.2444/2015,2000,g  8.0,4.0
# From MPC115880
C/2014 R3 (PANSTARRS),e,90.8993,334.0920,113.4619,7478,0.0000015,0.99902697,0.0000,08/08.7200/2016,2000,g  6.5,4.0
# From MPC 91615
P/2014 R5 (Lemmon-PANSTARRS),e,1.0883,126.5506,213.6980,4.057401,0.1205958,0.41324146,251.7946,03/05.0/2020,2000,g 15.0,4.0
# From MPC104790
C/2014 S2 (PANSTARRS),e,64.4690,8.1055,87.3585,171.4330,0.0004391,0.98785084,0.0000,12/09.0320/2015,2000,g 10.0,4.0
# From MPC 91616
P/2014 U4 (PANSTARRS),e,6.4293,11.9586,347.7515,3.507021,0.1500709,0.46548761,308.1393,03/05.0/2020,2000,g 18.0,4.0
# From MPC 95211
P/2014 V1 (PANSTARRS),e,22.5034,166.2090,177.5497,5.482687,0.0767739,0.53370856,143.5074,03/05.0/2020,2000,g 14.0,4.0
# From MPC 93586
P/2014 W1 (PANSTARRS),e,8.8399,246.2450,152.3306,4.459984,0.1046415,0.38866317,214.9513,03/05.0/2020,2000,g 15.5,4.0
# From MPC110493
C/2014 W2 (PANSTARRS),e,82.0335,69.9651,84.9381,603.2389,0.0000665,0.99557027,0.0000,03/08.6075/2016,2000,g  7.5,4.0
# From MPC105542
P/2014 W4 (PANSTARRS),e,15.2678,33.3485,67.9638,6.603316,0.0580846,0.35216280,88.6192,03/05.0/2020,2000,g 11.0,4.0
# From MPC 95211
C/2014 W6 (Catalina),h,03/18.1674/2015,53.4894,338.1999,209.9476,1.001247,3.097231,2000,10.5,4.0
# From MPC 91616
C/2014 W8 (PANSTARRS),e,41.9613,224.8309,227.9914,170.3119,0.0004434,0.97052495,0.0000,09/08.8802/2015,2000,g 11.0,4.0
# From MPC115880
C/2014 W10 (PANSTARRS),e,82.8662,43.1312,43.6704,856.9859,0.0000393,0.99116068,0.0000,03/04.7987/2016,2000,g  8.0,4.0
# From MPC107047
C/2014 W11 (PANSTARRS),e,19.9281,294.9937,227.4678,9.972670,0.0312959,0.65591224,53.2912,03/05.0/2020,2000,g 10.0,4.0
# From MPC 93587
P/2014 W12 (Gibbs),e,8.5141,299.2886,36.9211,3.517415,0.1494062,0.52393864,289.5699,03/05.0/2020,2000,g 15.0,4.0
# From MPC 94281
P/2014 X1 (Elenin),e,25.9985,61.5012,34.0241,6.212178,0.0636558,0.70857599,120.2211,03/05.0/2020,2000,g 15.0,4.0
# From MPC 96866
C/2014 XB8 (PANSTARRS),e,149.7912,37.4843,351.2921,621.7090,0.0000636,0.99516768,0.0000,04/03.9643/2015,2000,g 13.5,4.0
# From MPC100579
C/2014 Y1 (PANSTARRS),h,01/16.8028/2016,14.9172,19.5263,182.3424,1.001661,2.250834,2000,9.5,4.0
# From MPC 96279
C/2015 A1 (PANSTARRS),e,80.2054,341.0307,244.9337,20.23883,0.0108250,0.90131797,19.6915,03/05.0/2020,2000,g 14.5,4.0
# From MPC 93587
C/2015 A2 (PANSTARRS),p,08/01.8353/2015,109.1696,208.8369,5.341055,258.5042,2000,10.5,4.0
# From MPC 92275
P/2015 A3 (PANSTARRS),e,172.5279,277.1590,249.2076,7.807524,0.0451787,0.85178740,83.1674,03/05.0/2020,2000,g 20.0,4.0
# From MPC 99270
P/2015 B1 (PANSTARRS),e,18.0237,353.0741,188.7379,9.503468,0.0336419,0.36960880,54.8633,03/05.0/2020,2000,g  8.5,4.0
# From MPC108592
C/2015 B2 (PANSTARRS),h,05/06.0970/2016,105.0163,341.8719,284.7188,1.000216,3.368513,2000,9.5,4.0
# From MPC109141
P/2015 B4 (Lemmon-PANSTARRS),e,1.7604,266.0262,227.5207,8.539002,0.0394997,0.56096147,73.2022,03/05.0/2020,2000,g 11.0,4.0
# From MPC101096
P/2015 C1 (TOTAS-Gibbs),e,13.8848,348.8337,178.3961,6.589519,0.0582671,0.56036297,103.2376,03/05.0/2020,2000,g 12.5,4.0
# From MPC 95211
C/2015 C2 (SWAN),e,94.5423,49.4991,333.9550,344.9403,0.0001538,0.99795455,0.0000,03/03.9268/2015,2000,g 14.0,4.0
# From MPC119995
C/2015 D3 (PANSTARRS),h,05/03.1117/2016,128.5431,157.0370,2.9970,1.003857,8.149158,2000,5.5,4.0
# From MPC109141
P/2015 D5 (Kowalski),e,20.4936,74.0608,39.9897,8.979658,0.0366281,0.48901974,79.2502,03/05.0/2020,2000,g  9.0,4.0
# From MPC 96866
P/2015 D6 (Lemmon-PANSTARRS),e,20.2091,46.1219,125.2687,7.152764,0.0515221,0.36257872,87.7396,03/05.0/2020,2000,g 10.5,4.0
# From MPC112390
C/2015 ER61 (PANSTARRS),e,6.3458,235.2011,68.2269,459.1135,0.0001002,0.99773095,0.0000,05/10.2826/2017,2000,g 11.0,2.0
# From MPEC 2018-BF5
C/2015 E61-B (PANSTARRS),e,6.3473,235.2362,68.3161,1147,0.0000254,0.99909035,0.0000,05/10.2602/2017,2000,g 13.5,2.0
# From MPC109142
P/2015 F1 (PANSTARRS),e,2.8025,40.4064,187.4060,3.523973,0.1489893,0.27826589,270.4105,03/05.0/2020,2000,g 12.5,4.0
# From MPC 98561
C/2015 F2 (Polonia),e,28.7274,262.4499,352.2299,39.15987,0.0040220,0.96898062,7.1255,03/05.0/2020,2000,g 16.5,4.0
# From MPC 96279
C/2015 F3 (SWAN),e,73.5512,31.7190,57.4465,179.6640,0.0004093,0.99535497,0.0000,03/07.4661/2015,2000,g 14.5,4.0
# From MPC115880
C/2015 F4 (Jacques),e,48.8052,285.9193,36.3195,117.1867,0.0007769,0.98600649,0.0000,08/11.8378/2015,2000,g 11.0,4.0
# From MPC 95212
C/2015 F5 (SWAN-Xingming),e,149.3776,287.7500,13.4779,15.57278,0.0160382,0.97758213,0.0000,03/28.3979/2015,2000,g 15.5,4.0
# From MPC102096
C/2015 GX (PANSTARRS),e,90.2626,235.4917,108.8152,16.16512,0.0151648,0.87862330,25.0437,03/05.0/2020,2000,g 14.0,4.0
# From MPC109142
C/2015 G2 (MASTER),h,05/24.7726/2015,147.6621,110.2466,257.6475,1.000615,0.779337,2000,11.0,4.0
# From MPC 98561
C/2015 H1 (Bressi),e,140.6726,325.8499,21.9395,32.04734,0.0054327,0.93951458,9.8054,03/05.0/2020,2000,g 13.5,4.0
# From MPC117068
C/2015 H2 (PANSTARRS),h,09/14.1975/2016,33.6702,350.6907,288.0298,1.005483,4.973066,2000,7.5,4.0
# From MPC100280
P/2015 HG16 (PANSTARRS),e,18.8511,59.1949,47.2373,4.753050,0.0951142,0.34895290,197.8595,03/05.0/2020,2000,g 12.5,4.0
# From MPC101096
C/2015 J2 (PANSTARRS),e,17.2742,56.7523,203.8935,293.7916,0.0001957,0.98525611,0.0000,09/09.9925/2015,2000,g 10.0,4.0
# From MPC 95733
P/2015 J3 (NEOWISE),e,8.1308,111.3516,129.4305,3.349505,0.1607804,0.55450701,293.5825,03/05.0/2020,2000,g 16.5,4.0
# From MPC 95733
C/2015 K2 (PANSTARRS),e,29.0824,223.7192,15.9410,305.8730,0.0001842,0.99521704,0.0000,06/08.9282/2015,2000,g 20.0,4.0
# From MPC 95733
C/2015 K4 (PANSTARRS),h,05/01.8485/2015,80.2621,250.7316,357.7309,1.000916,2.017581,2000,15.0,4.0
# From MPC 95213
P/2015 K5 (PANSTARRS),e,39.9471,134.1916,106.2751,6.717077,0.0566153,0.55412645,98.1400,03/05.0/2020,2000,g 13.5,4.0
# From MPC111767
C/2015 LC2 (PANSTARRS),h,05/02.2860/2015,93.7219,223.6007,342.0299,1.000412,5.905754,2000,8.0,4.0
# From MPC 95734
C/2015 M1 (PANSTARRS),e,57.3303,100.1742,164.1801,449.9836,0.0001033,0.99533577,0.0000,05/15.8879/2015,2000,g 16.5,4.0
# From MPC107684
P/2015 M2 (PANSTARRS),e,3.9736,86.5787,225.1842,7.222702,0.0507755,0.18105015,83.3738,03/05.0/2020,2000,g  8.5,4.0
# From MPC115881
C/2015 M3 (PANSTARRS),e,65.8784,143.0142,123.8742,138.5483,0.0006044,0.97432037,0.0000,08/26.2566/2015,2000,g 12.0,4.0
# From MPC112390
C/2015 O1 (PANSTARRS),h,02/19.3368/2018,127.2230,299.8518,89.6300,1.000640,3.730306,2000,6.5,4.0
# From MPC 96280
C/2015 P3 (SWAN),e,58.2002,87.9904,133.1082,265.9196,0.0002273,0.99728554,0.0000,07/27.4535/2015,2000,g 15.5,4.0
# From MPC 99819
P/2015 P4 (PANSTARRS),e,8.7179,104.7668,280.6008,6.052322,0.0661944,0.58403288,99.7590,03/05.0/2020,2000,g 14.0,4.0
# From MPC102952
P/2015 PD229 (Cameron-ISON),e,2.0259,342.6530,352.3458,7.179149,0.0512383,0.32791188,85.2934,03/05.0/2020,2000,g 11.5,2.0
# From MPC 99819
P/2015 Q1 (Scotti),e,22.4040,203.0384,199.8771,3.469528,0.1525100,0.47881210,251.6214,03/05.0/2020,2000,g 14.0,4.0
# From MPC 96867
P/2015 Q2 (Pimentel),e,146.4694,228.3767,244.4123,7.344572,0.0495170,0.75127882,81.2855,03/05.0/2020,2000,g 15.5,4.0
# From MPC 98562
P/2015 R1 (PANSTARRS),e,22.6738,48.4795,300.3829,5.881503,0.0690990,0.63361960,118.3792,03/05.0/2020,2000,g 14.0,4.0
# From MPC 95734
P/2015 R2 (PANSTARRS),e,15.4720,168.6129,149.7041,4.489678,0.1036051,0.45252984,179.1580,03/05.0/2020,2000,g 14.5,4.0
# From MPC117068
C/2015 T2 (PANSTARRS),e,124.5486,51.0476,30.6718,2727,0.0000069,0.99745697,0.0000,05/18.9319/2017,2000,g  8.0,4.0
# From MPC 96280
P/2015 T3 (PANSTARRS),e,13.0937,120.5019,178.6330,4.326181,0.1095335,0.50818108,359.9227,12/21.0/2014,2000,g 14.0,4.0
# From MPC102953
C/2015 T4 (PANSTARRS),e,87.9653,251.8016,270.0574,80.35913,0.0013682,0.97141410,0.0000,06/17.4771/2016,2000,g 11.0,4.0
# From MPC102097
C/2015 T5 (Sheppard-Tholen),e,11.0493,311.0788,61.7981,28.06779,0.0066281,0.66750796,9.9682,03/05.0/2020,2000,g  7.5,4.0
# From MPC102953
P/2015 TO19 (Lemmon-PANSTARRS),e,6.4993,321.6433,89.1984,4.557693,0.1012946,0.35774779,147.9476,03/05.0/2020,2000,g 14.0,4.0
# From MPC110080
P/2015 TP200 (LINEAR),e,8.7734,6.9814,82.7215,7.282544,0.0501510,0.53490227,61.4120,03/05.0/2020,2000,g 11.0,4.0
# From MPC101097
C/2015 TQ209 (LINEAR),e,11.3064,223.3922,282.1455,687.4503,0.0000547,0.99794100,0.0000,08/26.2981/2016,2000,g 10.5,4.0
# From MPC115881
C/2015 V1 (PANSTARRS),e,139.2236,197.1893,179.6216,4427,0.0000033,0.99903588,0.0000,12/17.3493/2017,2000,g  6.5,4.0
# From MPC112390
C/2015 V2 (Johnson),h,06/12.1876/2017,49.8721,69.8590,164.9775,1.001839,1.641058,2000,5.0,4.0
# From MPC102953
